STARLINK-1790
1 16691C 20073X   21326.15103811  .00004611  00000-0  30899-3 0  3260
2 16691  53.0549  83.0682 0001244  84.3931 139.9013 15.06385240    11
